STARLINK-3398           
1 73398C 22005S   22020.82484654 -.00892750  00000-0 -97229-3 0   206
2 73398  53.2189 267.2892 0089148 166.7838 262.3035 16.01157109    18
STARLINK-3399           
1 73399C 22005T   22020.82485733 -.00876840  00000-0 -95991-3 0   202
2 73399  53.2189 267.2893 0089086 166.8108 262.2395 16.01094601    17
STARLINK-3373           
1 73373C 22005U   22020.82571384 -.00879137  00000-0 -95937-3 0   204
2 73373  53.2189 267.2848 0089157 166.7945 267.2843 16.01127763    15
STARLINK-3392           
1 73392C 22005V   22020.83553681 -.00838456  00000-0 -91728-3 0   209
2 73392  53.2189 267.2339 0089220 166.7649 323.9979 16.01082593    14
STARLINK-3389           
1 73389C 22005W   22020.83543189 -.00857447  00000-0 -93371-3 0   204
2 73389  53.2189 267.2345 0089421 166.7527 323.4517 16.01116340    16
STARLINK-3387           
1 73387C 22005X   22020.82452046 -.00849077  00000-0 -92287-3 0   207
2 73387  53.2188 267.2906 0089339 166.7996 260.5003 16.01154978    14
STARLINK-3386           
1 73386C 22005Y   22020.82579704 -.00797408  00000-0 -87709-3 0   200
2 73386  53.2189 267.2842 0088814 166.7384 267.8234 16.01069797    11
STARLINK-3370           
1 73370C 22005Z   22020.83542651 -.00846055  00000-0 -91985-3 0   209
2 73370  53.2188 267.2344 0089515 166.7461 323.4561 16.01123539    12
STARLINK-3400           
1 73400C 22005AA  22020.82574210 -.00866546  00000-0 -93705-3 0   207
2 73400  53.2189 267.2839 0089255 166.8300 267.6857 16.01239177    13
STARLINK-3396           
1 73396C 22005AB  22020.82501903 -.00716607  00000-0 -78032-3 0   208
2 73396  53.2188 267.2878 0090118 166.7332 263.5318 16.01006537    12
STARLINK-3395           
1 73395C 22005AC  22020.82502163 -.00887665  00000-0 -96184-3 0   207
2 73395  53.2189 267.2880 0089239 166.7806 263.4610 16.01213629    19
STARLINK-3388           
1 73388C 22005AD  22020.82433716 -.00738710  00000-0 -80224-3 0   200
2 73388  53.2188 267.2913 0090030 166.6763 259.6729 16.01057662    10
STARLINK-3393           
1 73393C 22005AE  22020.82435020 -.00890335  00000-0 -96178-3 0   203
2 73393  53.2189 267.2914 0089349 166.7500 259.6403 16.01239212    11
STARLINK-3356           
1 73356C 22005AF  22020.82459490 -.00859984  00000-0 -92716-3 0   208
2 73356  53.2188 267.2898 0089499 166.7194 261.1620 16.01242942    18
STARLINK-3183           
1 73183C 22005AG  22020.83457624  .00890948  00000-0  86369-3 0   204
2 73183  53.2234 267.2306 0090594 168.4755 320.5292 16.02503773    10
STARLINK-3363           
1 73363C 22005AH  22020.82431017 -.00872935  00000-0 -94210-3 0   203
2 73363  53.2188 267.2912 0089228 166.7198 259.5680 16.01270811    10
STARLINK-3253           
1 73253C 22005AJ  22020.82417423 -.00872674  00000-0 -94349-3 0   209
2 73253  53.2189 267.2921 0089277 166.7375 258.7108 16.01238550    10
STARLINK-3180           
1 73180C 22005AK  22020.82559524 -.00869504  00000-0 -93721-3 0   208
2 73180  53.2188 267.2840 0089136 166.7454 267.2035 16.01302641    17
STARLINK-3177           
1 73177C 22005AL  22020.82448859 -.00860391  00000-0 -92906-3 0   201
2 73177  53.2189 267.2901 0089234 166.7466 260.6961 16.01262218    14
STARLINK-3172           
1 73172C 22005AM  22020.83529476 -.00884759  00000-0 -95308-3 0   205
2 73172  53.2187 267.2341 0089002 166.6876 323.1557 16.01332011    17
STARLINK-3175           
1 73175C 22005AN  22020.82416324 -.00859519  00000-0 -92793-3 0   205
2 73175  53.2188 267.2918 0089103 166.7210 258.8208 16.01285510    14
STARLINK-3179           
1 73179C 22005AP  22020.83527988 -.00732305  00000-0 -78943-3 0   203
2 73179  53.2187 267.2342 0090025 166.6571 323.1023 16.01160885    10
STARLINK-3369           
1 73369C 22005AQ  22020.82381955 -.00872815  00000-0 -94008-3 0   206
2 73369  53.2189 267.2937 0089267 166.7005 256.8038 16.01292537    10
STARLINK-3184           
1 73184C 22005AR  22020.82571414 -.00848042  00000-0 -90686-3 0   205
2 73184  53.2187 267.2834 0089514 166.6926 267.9364 16.01353512    11
STARLINK-3185           
1 73185C 22005AS  22020.83528995 -.00878549  00000-0 -94542-3 0   203
2 73185  53.2188 267.2342 0089075 166.6969 323.1381 16.01334869    14
STARLINK-3365           
1 73365C 22005AT  22020.82571705 -.00747454  00000-0 -80091-3 0   203
2 73365  53.2187 267.2834 0090072 166.6247 268.0149 16.01237421    12
STARLINK-3354           
1 73354C 22005AU  22020.82574890 -.00731150  00000-0 -78915-3 0   207
2 73354  53.2188 267.2835 0090042 166.6624 268.0689 16.01141372    16
STARLINK-3352           
1 73352C 22005AV  22020.83526449 -.00881144  00000-0 -94279-3 0   203
2 73352  53.2187 267.2342 0089353 166.6429 323.0338 16.01371188    15
STARLINK-3359           
1 73359C 22005AW  22020.82571421 -.00865214  00000-0 -92179-3 0   206
2 73359  53.2188 267.2834 0089563 166.6776 267.9516 16.01397396    10
STARLINK-3360           
1 73360C 22005AX  22020.82559767 -.00878048  00000-0 -93469-3 0   209
2 73360  53.2187 267.2839 0089468 166.6797 267.3288 16.01423766    14
STARLINK-3357           
1 73357C 22005AY  22020.82564487 -.00856764  00000-0 -91585-3 0   208
2 73357  53.2188 267.2842 0089606 166.7051 267.4338 16.01344401    18
STARLINK-3361           
1 73361C 22005AZ  22020.83510506 -.00859652  00000-0 -91536-3 0   202
2 73361  53.2187 267.2347 0089546 166.6104 322.2848 16.01407605    15
STARLINK-3364           
1 73364C 22005BA  22020.82560704 -.00906528  00000-0 -96317-3 0   206
2 73364  53.2188 267.2839 0089334 166.6896 267.3870 16.01471385    18
